BEIDOU-3 M14            
1 43623U 18072B   26132.96216037 -.00000032  00000+0  00000+0 0  9998
2 43623  56.5971  63.8160 0006642 346.6711  13.2952  1.86231517 51993
BEIDOU-3 M16            
1 43647U 18078A   26132.58110638 -.00000042  00000+0  00000+0 0  9999
2 43647  54.1235 301.2337 0007880  39.7391 320.3068  1.86232272 51494
BEIDOU-3 M15            
1 43648U 18078B   26132.71039991 -.00000043  00000+0  00000+0 0  9998
2 43648  54.1193 301.2300 0005041  52.0835 307.9498  1.86232596 51516
BEIDOU-3 G1             
1 43683U 18085A   26133.25225046 -.00000093  00000+0  00000+0 0  9998
2 43683   2.9852  98.2939 0007562 339.1645  44.3564  1.00272708 27713
BEIDOU-3 M17            
1 43706U 18093A   26131.35359073  .00000068  00000+0  00000+0 0  9991
2 43706  54.1670 183.5464 0009480 290.8488 131.5748  1.86228417 50852
BEIDOU-3 M18            
1 43707U 18093B   26131.66046264  .00000072  00000+0  00000+0 0  9996
2 43707  54.1678 183.5281 0007382 321.8365  38.1924  1.86226872 50857
BEIDOU-3 IGSO-1         
1 44204U 19023A   26131.75131156 -.00000223  00000+0  00000+0 0  9997
2 44204  58.6454  38.0276 0023914 234.3447 343.0032  1.00250952  6847
BEIDOU-2 G8             
1 44231U 19027A   26133.27811819 -.00000233  00000+0  00000+0 0  9992
2 44231   1.5690  74.4204 0010886 281.8850 119.3903  1.00273277 25735
BEIDOU-3 IGSO-2         
1 44337U 19035A   26132.65390358 -.00000046  00000+0  00000+0 0  9991
2 44337  55.2385 159.1745 0039680 215.7907 210.7620  1.00277740 25317
BEIDOU-3 M24            
1 44542U 19061A   26132.26653437  .00000079  00000+0  00000+0 0  9990
2 44542  54.3947 183.9396 0008069   3.0711 357.0175  1.86229288 45123
BEIDOU-3 M23            
1 44543U 19061B   26131.34946017  .00000067  00000+0  00000+0 0  9995
2 44543  54.3931 183.9390 0005138 344.4737  32.5944  1.86227672 45118
BEIDOU-3 IGSO-3         
1 44709U 19073A   26120.85038409 -.00000212  00000+0  00000+0 0  9996
2 44709  54.8842 281.4069 0042404 188.8195 170.9972  1.00251230 23982
BEIDOU-3 M22            
1 44793U 19078A   26133.17974512 -.00000045  00000+0  00000+0 0  9991
2 44793  53.9692 301.0593 0007149  47.6212 312.4253  1.86227473 43992
BEIDOU-3 M21            
1 44794U 19078B   26130.09800295 -.00000037  00000+0  00000+0 0  9997
2 44794  53.9450 301.1295 0004992  44.9662 315.0658  1.86228028 43947
BEIDOU-3 M19            
1 44864U 19090A   26128.49025716 -.00000021  00000+0  00000+0 0  9990
2 44864  56.5258  64.1028 0019338 296.1784 262.9647  1.86231851 43492
BEIDOU-3 M20            
1 44865U 19090B   26132.62828494 -.00000030  00000+0  00000+0 0  9995
2 44865  56.5307  64.0010 0016968 309.0704 234.0077  1.86231636 43555
BEIDOU-3 G2             
1 45344U 20017A   26133.12270501 -.00000127  00000+0  00000+0 0  9992
2 45344   2.7934  46.7761 0002671   9.8321 298.5035  1.00272753 22909
BEIDOU-3 G3             
1 45807U 20040A   26133.27135817 -.00000340  00000+0  00000+0 0  9995
2 45807   2.3612  67.3453 0003370 334.0516  37.8555  1.00275416 21724
BEIDOU-3 G4             
1 56564U 23066A   26133.27716486 -.00000270  00000+0  00000+0 0  9997
2 56564   0.5332 323.1369 0003494 161.2325 346.4108  1.00265990 11042
BEIDOU-3 M28            
1 58654U 23207A   26132.32302171 -.00000030  00000+0  00000+0 0  9997
2 58654  55.7225  63.5128 0004245 330.2096  29.7521  1.86229701 16176
BEIDOU-3 M26            
1 58655U 23207B   26132.12051808 -.00000029  00000+0  00000+0 0  9992
2 58655  55.7245  63.5061 0004481 309.5108  50.4360  1.86229680 16156
BEIDOU-3 M25            
1 61186U 24168B   26132.49273970 -.00000042  00000+0  00000+0 0  9993
2 61186  54.5066 303.4829 0003136 313.6344  53.1046  1.86230066 11122
BEIDOU-3 M27            
1 61187U 24168C   26132.81413929 -.00000043  00000+0  00000+0 0  9991
2 61187  54.5019 303.4547 0002254  43.2170 314.0218  1.86230139  8599
